start=new Date('2022-03-01T00:00:00.000Z').valueOf();
sats=[{"MEAN_ANOMALY":"163.6776","ECCENTRICITY":"0.00010760","SITE":"AFETR","DECAY_DATE":null,"ELEMENT_SET_NO":"999","CLASSIFICATION_TYPE":"U","INCLINATION":"53.2181","RA_OF_ASC_NODE":"103.3524","LAUNCH_DATE":"2022-02-21","EPOCH":"2022-02-28T22:00:00.999936","MEAN_ELEMENT_THEORY":"SGP4","EPHEMERIS_TYPE":"0","BSTAR":"0.00014725000000","TLE_LINE1":"1 51721U 22016H   22059.91667824  .00020062  00000-0  14725-3 0  9990","MEAN_MOTION":"15.73162361","GP_ID":"197414420","PERIAPSIS":"349.144","CENTER_NAME":"EARTH","REF_FRAME":"TEME","ARG_OF_PERICENTER":"49.6914","TIME_SYSTEM":"UTC","MEAN_MOTION_DOT":"0.00020062","MEAN_MOTION_DDOT":"0.0000000000000","OBJECT_NAME":"STARLINK-3524","SEMIMAJOR_AXIS":"6728.002","PERIOD":"91.535","COUNTRY_CODE":"US","APOAPSIS":"350.591","NORAD_CAT_ID":"51721","TLE_LINE2":"2 51721  53.2181 103.3524 0001076  49.6914 163.6776 15.73162361  1836","FILE":"3334872","OBJECT_TYPE":"PAYLOAD","REV_AT_EPOCH":"183","RCS_SIZE":null,"OBJECT_ID":"2022-016H"},{"NORAD_CAT_ID":"51722","APOAPSIS":"350.737","COUNTRY_CODE":"US","FILE":"3334872","TLE_LINE2":"2 51722  53.2185 103.3471 0001541  66.5787 149.7271 15.73220925  1831","OBJECT_TYPE":"PAYLOAD","REV_AT_EPOCH":"183","RCS_SIZE":null,"OBJECT_ID":"2022-016J","MEAN_ELEMENT_THEORY":"SGP4","EPHEMERIS_TYPE":"0","TLE_LINE1":"1 51722U 22016J   22059.91667824  .00067103  00000-0  47829-3 0  9999","BSTAR":"0.00047829000000","CENTER_NAME":"EARTH","GP_ID":"197414620","PERIAPSIS":"348.664","MEAN_MOTION":"15.73220925","ARG_OF_PERICENTER":"66.5787","TIME_SYSTEM":"UTC","REF_FRAME":"TEME","MEAN_MOTION_DDOT":"0.0000000000000","OBJECT_NAME":"STARLINK-3535","MEAN_MOTION_DOT":"0.00067103","PERIOD":"91.532","SEMIMAJOR_AXIS":"6727.836","INCLINATION":"53.2185","RA_OF_ASC_NODE":"103.3471","LAUNCH_DATE":"2022-02-21","EPOCH":"2022-02-28T22:00:00.999936","MEAN_ANOMALY":"149.7271","ECCENTRICITY":"0.00015410","SITE":"AFETR","DECAY_DATE":null,"ELEMENT_SET_NO":"999","CLASSIFICATION_TYPE":"U"},{"BSTAR":"0.00026662000000","TLE_LINE1":"1 51723U 22016K   22059.91667824  .00044198  00000-0  26662-3 0  9991","EPHEMERIS_TYPE":"0","MEAN_ELEMENT_THEORY":"SGP4","MEAN_MOTION_DOT":"0.00044198","OBJECT_NAME":"STARLINK-3531","MEAN_MOTION_DDOT":"0.0000000000000","SEMIMAJOR_AXIS":"6716.432","PERIOD":"91.299","GP_ID":"197414018","CENTER_NAME":"EARTH","PERIAPSIS":"335.756","MEAN_MOTION":"15.77229109","REF_FRAME":"TEME","TIME_SYSTEM":"UTC","ARG_OF_PERICENTER":"295.9291","OBJECT_TYPE":"PAYLOAD","REV_AT_EPOCH":"183","COUNTRY_CODE":"US","NORAD_CAT_ID":"51723","APOAPSIS":"340.839","FILE":"3334872","TLE_LINE2":"2 51723  53.2206 103.2744 0003784 295.9291 315.7732 15.77229109  1831","RCS_SIZE":null,"OBJECT_ID":"2022-016K","SITE":"AFETR","MEAN_ANOMALY":"315.7732","ECCENTRICITY":"0.00037840","DECAY_DATE":null,"ELEMENT_SET_NO":"999","CLASSIFICATION_TYPE":"U","RA_OF_ASC_NODE":"103.2744","LAUNCH_DATE":"2022-02-21","INCLINATION":"53.2206","EPOCH":"2022-02-28T22:00:00.999936"},{"RCS_SIZE":null,"OBJECT_ID":"2022-016L","OBJECT_TYPE":"PAYLOAD","REV_AT_EPOCH":"183","APOAPSIS":"350.850","NORAD_CAT_ID":"51724","COUNTRY_CODE":"US","FILE":"3334872","TLE_LINE2":"2 51724  53.2200 103.3443 0001362  63.1612 154.6532 15.73139085  1832","MEAN_MOTION_DDOT":"0.0000000000000","OBJECT_NAME":"STARLINK-3529","MEAN_MOTION_DOT":"0.00004050","PERIOD":"91.537","SEMIMAJOR_AXIS":"6728.069","MEAN_MOTION":"15.73139085","GP_ID":"197414217","PERIAPSIS":"349.017","CENTER_NAME":"EARTH","TIME_SYSTEM":"UTC","ARG_OF_PERICENTER":"63.1612","REF_FRAME":"TEME","TLE_LINE1":"1 51724U 22016L   22059.91667824  .00004050  00000-0  33346-4 0  9993","BSTAR":"0.00003334600000","EPHEMERIS_TYPE":"0","MEAN_ELEMENT_THEORY":"SGP4","EPOCH":"2022-02-28T22:00:00.999936","RA_OF_ASC_NODE":"103.3443","LAUNCH_DATE":"2022-02-21","INCLINATION":"53.2200","DECAY_DATE":null,"ELEMENT_SET_NO":"999","CLASSIFICATION_TYPE":"U","SITE":"AFETR","MEAN_ANOMALY":"154.6532","ECCENTRICITY":"0.00013620"},{"MEAN_ELEMENT_THEORY":"SGP4","EPHEMERIS_TYPE":"0","TLE_LINE1":"1 51725U 22016M   22059.91667824  .00064607  00000-0  46087-3 0  9993","BSTAR":"0.00046087000000","GP_ID":"197414118","CENTER_NAME":"EARTH","PERIAPSIS":"348.857","MEAN_MOTION":"15.73217585","TIME_SYSTEM":"UTC","ARG_OF_PERICENTER":"68.1914","REF_FRAME":"TEME","OBJECT_NAME":"STARLINK-3522","MEAN_MOTION_DDOT":"0.0000000000000","MEAN_MOTION_DOT":"0.00064607","PERIOD":"91.532","SEMIMAJOR_AXIS":"6727.845","NORAD_CAT_ID":"51725","APOAPSIS":"350.563","COUNTRY_CODE":"US","TLE_LINE2":"2 51725  53.2204 103.3482 0001268  68.1914 147.4780 15.73217585  1832","FILE":"3334872","OBJECT_TYPE":"PAYLOAD","REV_AT_EPOCH":"183","RCS_SIZE":null,"OBJECT_ID":"2022-016M","MEAN_ANOMALY":"147.4780","ECCENTRICITY":"0.00012680","SITE":"AFETR","DECAY_DATE":null,"ELEMENT_SET_NO":"999","CLASSIFICATION_TYPE":"U","INCLINATION":"53.2204","RA_OF_ASC_NODE":"103.3482","LAUNCH_DATE":"2022-02-21","EPOCH":"2022-02-28T22:00:00.999936"},{"RCS_SIZE":null,"OBJECT_ID":"2022-016N","OBJECT_TYPE":"PAYLOAD","REV_AT_EPOCH":"183","COUNTRY_CODE":"US","NORAD_CAT_ID":"51726","APOAPSIS":"350.504","TLE_LINE2":"2 51726  53.2188 103.3418 0001166  66.4444 152.6541 15.73214317  1832","FILE":"3334872","MEAN_MOTION_DOT":"-0.00037609","MEAN_MOTION_DDOT":"0.0000000000000","OBJECT_NAME":"STARLINK-3527","SEMIMAJOR_AXIS":"6727.854","PERIOD":"91.532","CENTER_NAME":"EARTH","GP_ID":"197414715","PERIAPSIS":"348.935","MEAN_MOTION":"15.73214317","REF_FRAME":"TEME","ARG_OF_PERICENTER":"66.4444","TIME_SYSTEM":"UTC","BSTAR":"-0.00026459000000","TLE_LINE1":"1 51726U 22016N   22059.91667824 -.00037609  00000-0 -26459-3 0  9999","EPHEMERIS_TYPE":"0","MEAN_ELEMENT_THEORY":"SGP4","EPOCH":"2022-02-28T22:00:00.999936","RA_OF_ASC_NODE":"103.3418","LAUNCH_DATE":"2022-02-21","INCLINATION":"53.2188","DECAY_DATE":null,"CLASSIFICATION_TYPE":"U","ELEMENT_SET_NO":"999","SITE":"AFETR","MEAN_ANOMALY":"152.6541","ECCENTRICITY":"0.00011660"},{"SITE":"AFETR","ECCENTRICITY":"0.00012900","MEAN_ANOMALY":"152.6873","ELEMENT_SET_NO":"999","CLASSIFICATION_TYPE":"U","DECAY_DATE":null,"LAUNCH_DATE":"2022-02-21","RA_OF_ASC_NODE":"103.3451","INCLINATION":"53.2205","EPOCH":"2022-02-28T22:00:00.999936","TLE_LINE1":"1 51727U 22016P   22059.91667824 -.00071926  00000-0 -51256-3 0  9993","BSTAR":"-0.00051256000000","MEAN_ELEMENT_THEORY":"SGP4","EPHEMERIS_TYPE":"0","PERIOD":"91.533","SEMIMAJOR_AXIS":"6727.909","OBJECT_NAME":"STARLINK-3532","MEAN_MOTION_DDOT":"0.0000000000000","MEAN_MOTION_DOT":"-0.00071926","TIME_SYSTEM":"UTC","ARG_OF_PERICENTER":"64.5121","REF_FRAME":"TEME","GP_ID":"197414321","CENTER_NAME":"EARTH","PERIAPSIS":"348.906","MEAN_MOTION":"15.73195126","REV_AT_EPOCH":"183","OBJECT_TYPE":"PAYLOAD","TLE_LINE2":"2 51727  53.2205 103.3451 0001290  64.5121 152.6873 15.73195126  1833","FILE":"3334872","NORAD_CAT_ID":"51727","APOAPSIS":"350.642","COUNTRY_CODE":"US","OBJECT_ID":"2022-016P","RCS_SIZE":null},{"EPOCH":"2022-02-28T22:00:00.999936","LAUNCH_DATE":"2022-02-21","RA_OF_ASC_NODE":"103.3393","INCLINATION":"53.2188","ELEMENT_SET_NO":"999","CLASSIFICATION_TYPE":"U","DECAY_DATE":null,"SITE":"AFETR","ECCENTRICITY":"0.00013430","MEAN_ANOMALY":"150.2541","OBJECT_ID":"2022-016Q","RCS_SIZE":null,"REV_AT_EPOCH":"183","OBJECT_TYPE":"PAYLOAD","FILE":"3334872","TLE_LINE2":"2 51728  53.2188 103.3393 0001343  70.1008 150.2541 15.73181049  1830","APOAPSIS":"350.718","NORAD_CAT_ID":"51728","COUNTRY_CODE":"US","PERIOD":"91.534","SEMIMAJOR_AXIS":"6727.949","MEAN_MOTION_DDOT":"0.0000000000000","OBJECT_NAME":"STARLINK-3448","MEAN_MOTION_DOT":"-0.00026000","TIME_SYSTEM":"UTC","ARG_OF_PERICENTER":"70.1008","REF_FRAME":"TEME","GP_ID":"197414520","CENTER_NAME":"EARTH","PERIAPSIS":"348.911","MEAN_MOTION":"15.73181049","TLE_LINE1":"1 51728U 22016Q   22059.91667824 -.00026000  00000-0 -18155-3 0  9998","BSTAR":"-0.00018155000000","EPHEMERIS_TYPE":"0","MEAN_ELEMENT_THEORY":"SGP4"},{"INCLINATION":"53.2200","LAUNCH_DATE":"2022-02-21","RA_OF_ASC_NODE":"103.3426","EPOCH":"2022-02-28T22:00:00.999936","ECCENTRICITY":"0.00013050","MEAN_ANOMALY":"161.8459","SITE":"AFETR","ELEMENT_SET_NO":"999","CLASSIFICATION_TYPE":"U","DECAY_DATE":null,"TLE_LINE2":"2 51729  53.2200 103.3426 0001305  56.6403 161.8459 15.73146763  1839","FILE":"3334872","COUNTRY_CODE":"US","APOAPSIS":"350.790","NORAD_CAT_ID":"51729","REV_AT_EPOCH":"183","OBJECT_TYPE":"PAYLOAD","OBJECT_ID":"2022-016R","RCS_SIZE":null,"MEAN_ELEMENT_THEORY":"SGP4","EPHEMERIS_TYPE":"0","BSTAR":"0.00010266000000","TLE_LINE1":"1 51729U 22016R   22059.91667824  .00013779  00000-0  10266-3 0  9991","REF_FRAME":"TEME","ARG_OF_PERICENTER":"56.6403","TIME_SYSTEM":"UTC","GP_ID":"197414421","PERIAPSIS":"349.034","MEAN_MOTION":"15.73146763","CENTER_NAME":"EARTH","SEMIMAJOR_AXIS":"6728.047","PERIOD":"91.536","MEAN_MOTION_DOT":"0.00013779","OBJECT_NAME":"STARLINK-3523","MEAN_MOTION_DDOT":"0.0000000000000"},{"MEAN_MOTION_DOT":"0.00061374","OBJECT_NAME":"STARLINK-3530","MEAN_MOTION_DDOT":"0.0000000000000","SEMIMAJOR_AXIS":"6727.878","PERIOD":"91.533","GP_ID":"197414621","PERIAPSIS":"348.966","CENTER_NAME":"EARTH","MEAN_MOTION":"15.73206115","REF_FRAME":"TEME","TIME_SYSTEM":"UTC","ARG_OF_PERICENTER":"73.7956","BSTAR":"0.00043841000000","TLE_LINE1":"1 51730U 22016S   22059.91667824  .00061374  00000-0  43841-3 0  9992","EPHEMERIS_TYPE":"0","MEAN_ELEMENT_THEORY":"SGP4","RCS_SIZE":null,"OBJECT_ID":"2022-016S","OBJECT_TYPE":"PAYLOAD","REV_AT_EPOCH":"183","COUNTRY_CODE":"US","NORAD_CAT_ID":"51730","APOAPSIS":"350.519","FILE":"3334872","TLE_LINE2":"2 51730  53.2189 103.3366 0001154  73.7956 147.8778 15.73206115  1831","DECAY_DATE":null,"ELEMENT_SET_NO":"999","CLASSIFICATION_TYPE":"U","SITE":"AFETR","MEAN_ANOMALY":"147.8778","ECCENTRICITY":"0.00011540","EPOCH":"2022-02-28T22:00:00.999936","RA_OF_ASC_NODE":"103.3366","LAUNCH_DATE":"2022-02-21","INCLINATION":"53.2189"}];
